#dP2024  6 27  6  0  0.00000000      96 __u+U IGS20 EXT  IAC
## 2320 367200.00000000   900.00000000 60488 0.2500000000000
+   54   G02G03G04G05G06G07G08G09G10G11G12G13G14G15G16G17G18
+        G19G20G21G22G23G24G25G26G27G28G29G30G31G32R01R02R03
+        R04R05R07R08R09R11R12R13R14R15R16R17R18R19R20R21R22
+        R24R25R26  0  0  0  0  0  0  0  0  0  0  0  0  0  0
+          0  0  0  0  0  0  0  0  0  0  0  0  0  0  0  0  0
++         8  9  9  8  9  7  9  7 10  7  9  7  8  9  8  9  8
++         8  8  8  8  9  8  8  7  8  8  8  7  7  9  9  8 11
++         9  9 10  8  9  8  8  8  7  8  8  8  8  7  8  7  7
++         8  8  8  0  0  0  0  0  0  0  0  0  0  0  0  0  0
++         0  0  0  0  0  0  0  0  0  0  0  0  0  0  0  0  0
%c M  cc GPS ccc cccc cccc cccc cccc ccccc ccccc ccccc ccccc
%c cc cc ccc ccc cccc cccc cccc cccc ccccc ccccc ccccc ccccc
%f  0.0000000  0.000000000  0.00000000000  0.000000000000000
%f  0.0000000  0.000000000  0.00000000000  0.000000000000000
%i    0    0    0    0      0      0      0      0         0
%i    0    0    0    0      0      0      0      0         0
/* IAC                                ULTRA-RAPID PREDICTION
/* S/V CLOCKS ARE ALIGNED TO GNSS TIME                      
/* G:C1WC2W R:C1PC2P E:C1XC5X C:C2IC6I J:C1CC2S             
/* PCV:IGS20_2317 OL/AL:FES2004  NONE     YN ORB:CoN CLK:CoN
*  2024 06 27 12  0  0.00000000
PG02  14950.411978  -3245.815739  22187.096442   -409.909421
PG03  22714.317493 -12096.217628   6150.506226    432.801948
PG04  21710.396139  -1694.977041 -15284.520438    391.991151
PG05 -19103.244227   -556.241595 -18662.182322   -177.778769
PG06  -5085.334952 -25802.536844  -3208.876707    194.906299
PG07   6903.707586 -21299.863813 -13397.688479    -82.495975
PG08  25626.056490   5577.829485   5345.992778    249.158018
PG09  11639.724984 -11359.123335 -21090.942792    250.866965
PG10  -2974.140445  18249.134475  19146.087180    -52.286859
PG11 -12072.117543 -18088.174871 -15266.679979   -694.005856
PG12 -23590.105736   8971.314345   7913.504878   -517.586875
PG13 -22607.124886 -14169.362292   -934.695429    660.780182
PG14   6948.914651 -19657.727326  16366.907337    435.369478
PG15 -25973.563517  -2691.154484   4867.267828    174.757644
PG16  17216.978077   5533.016645 -19928.628139   -252.654847
PG17  -2577.959837 -17020.632295  20602.238132    687.964526
PG18  -6742.225480  21792.048397 -13416.321464   -630.081325
PG19 -12274.915790 -18356.515568  14876.789010    502.344192
PG20 -12558.639367  -8915.489060 -21566.494091    373.380678
PG21  16126.159639   3640.985621  21399.740374    112.714234
PG22   -421.147255 -16991.008382  20897.139434    -32.591557
PG23 -13807.037706  20085.479488  10327.026742    260.305683
PG24 -15730.830087    897.777778  20985.241798   -480.270521
PG25 -20211.336587  16997.439883  -1059.462462    497.883677
PG26   6598.620411  15058.242766 -20959.703695    129.966684
PG27  22723.377417  13257.588580  -5330.946832    -29.569734
PG28   4740.625780  26125.595834   -682.998929   -307.051391
PG29 -15265.179617   7850.113417 -20350.454102   -592.308529
PG30   -355.331162 -26075.918868  -4056.087282   -367.400794
PG31  10634.466280  21229.319888 -11707.305230   -227.152381
PG32   6071.779946  17184.324348  19602.786495   -614.756041
PR01  24759.804780   2469.639197   5578.324514     89.656182
PR02  22372.345398  -4584.414324 -11384.744305    -23.460919
PR03   7280.347818 -10225.648610 -22168.256589    102.827205
PR04 -11264.769478  -9878.710876 -20611.136609    242.973187
PR05 -23795.325104  -4499.965285  -7968.855728    133.717884
PR07  -6366.401780  10367.590650  22453.130018     85.460274
PR08  11602.966647   9875.441229  20526.899161     -5.378689
PR09 -15881.850557  15737.590021  12382.096877    194.533997
PR11   -663.156803  18010.309740 -18046.253925     20.062699
PR12  11905.711447   1137.363866 -22501.411555     41.794687
PR13  15988.516754 -13495.174887 -14598.875708    -48.745909
PR14  10763.350598 -22672.403870   4507.273981     26.627502
PR15   -512.266381 -16990.478505  19039.426474     78.425190
PR16 -11705.660152  -1219.745371  22650.263794     26.848977
PR17  -1640.591387 -19167.939948  16777.889456     99.557444
PR18 -11056.725317 -22882.274743   1915.620975    149.083135
PR19 -14466.167736 -16797.429431 -12632.803978   -281.815260
PR20  -9982.804934   3207.244926 -23249.633629   -115.186282
PR21   1260.153814  18902.997627 -17069.579605   -112.772533
PR22  11021.085475  23000.070524   -656.149397     97.162694
PR24   9989.217714  -4412.228543  23062.751956    -61.523930
PR25    859.151114  19446.702588 -16470.363020    -89.253287
PR26  10260.068534  10038.369812  21099.619247     -5.386487
*  2024 06 27 12 15  0.00000000
PG02  15540.190145   -894.468435  22023.065158   -409.902959
PG03  22147.620131 -11396.790419   8886.136593    432.817493
PG04  23138.305892   -906.093417 -13116.626120    391.998333
PG05 -17554.093448  -2084.071415 -20031.183912   -177.779963
PG06  -4936.896440 -26034.239976   -299.538537    194.886676
PG07   7434.814503 -19608.631077 -15496.446247    -82.487724
PG08  25984.714231   5954.617063   2578.202624    249.173684
PG09  13826.526070 -10510.151135 -20192.855612    250.880213
PG10  -4647.781125  19463.591654  17501.609017    -52.294836
PG11 -12079.407452 -19721.118457 -13092.080491   -694.012660
PG12 -22837.099833   8147.267725  10503.491776   -517.589738
PG13 -22294.698950 -14229.855506  -3781.795061    660.782504
PG14   8477.043496 -20567.991404  14385.537396    435.377618
PG15 -26352.752901  -3089.932797   2110.097280    174.761416
PG16  15386.092760   6863.251557 -20963.218469   -252.645197
PG17   -429.311771 -16134.274992  21485.776185    687.958813
PG18  -7153.752068  20167.979443 -15584.965189   -630.085408
PG19 -10578.832272 -17663.196395  16829.780466    502.349064
PG20 -10947.844942 -10808.261711 -21592.129377    373.380308
PG21  16673.190663   5865.503852  20539.600825    112.711961
PG22   1475.408727 -18183.705938  19820.699381    -32.595850
PG23 -14715.497501  20610.518575   7676.673894    260.313861
PG24 -16323.817727  -1499.749683  20539.268849   -480.272445
PG25 -20350.070390  16713.051642   1789.880555    497.884107
PG26   4839.827939  16609.074783 -20217.065178    129.960826
PG27  21975.654890  13199.768978  -8029.235151    -29.570762
PG28   4473.961748  26090.214568   2171.630910   -307.066186
PG29 -17256.860754   6818.042613 -19099.893389   -592.306979
PG30     83.893988 -25494.626792  -6782.004601   -367.395109
PG31  10538.720750  22435.397620  -9199.573152   -227.152172
PG32   3922.001480  16486.382603  20712.946031   -614.754649
PR01  23877.591002   2365.112865   8634.300380     89.657169
PR02  23603.437199  -4743.811042  -8478.986010    -23.461123
PR03   9957.886251 -10313.092435 -21066.242502    102.827689
PR04  -8634.309991  -9812.440743 -21873.056408    242.974612
PR05 -22627.178884  -4334.295104 -10915.818736    133.718318
PR07  -9067.608663  10443.946165  21461.923010     85.461002
PR08   9003.814926   9832.692487  21812.806285     -5.379029
PR09 -15040.276043  14285.137525  14928.755666    194.535959
PR11  -1581.200501  19896.675939 -15881.599596     20.061770
PR12  10528.351750   3586.357617 -22925.610303     41.795027
PR13  14983.226584 -11829.388621 -16925.680735    -48.746213
PR14  10834.605534 -23041.488225   1334.842142     26.627312
PR15    497.184538 -18971.944846  17062.591990     78.424795
PR16 -10333.708976  -3678.693091  23045.420917     26.849192
PR17   -638.328935 -17208.263561  18839.874405     99.560499
PR18 -11016.410458 -22405.971154   5120.061244    149.084808
PR19 -15284.540181 -17931.122864  -9790.500930   -281.816548
PR20 -11333.255188    698.373796 -22834.763291   -115.186913
PR21    257.734648  16902.459242 -19095.359683   -112.775422
PR22  11019.634506  22682.022613  -3852.979441     97.157841
PR24  11427.252614  -1982.760197  22727.594683    -61.525339
PR25    -74.673674  17494.226812 -18552.342730    -89.280995
PR26   7590.492228  10025.106884  22209.099991     -5.385729
EOF
